STARLINK-4075           
1 52670U 22053Q   26068.53668016 -.00000474  00000+0 -11683-4 0  9998
2 52670  53.2177 154.8782 0001217  89.3389 270.7743 15.08831881211022
DISKSAT A               
1 67222U 25305D   26068.54789610  .00013824  00000+0  90452-3 0  9996
2 67222  45.0023 251.6019 0004082 318.1929  41.8634 15.07741062 12266
